#aV2006  3  8  0  0   .00000000      96 DD+AD WGS84 FIT  NGA
## 1365 259200.00000000   900.00000000 53802  .0000000000000
+   29     1  2  3  4  5  6  7  8  9 10 11 13 14 15 16 17 18
+         19 20 21 22 23 24 25 26 27 28 29 30  0  0  0  0  0
+          0  0  0  0  0  0  0  0  0  0  0  0  0  0  0  0  0
+          0  0  0  0  0  0  0  0  0  0  0  0  0  0  0  0  0
+          0  0  0  0  0  0  0  0  0  0  0  0  0  0  0  0  0
++         0  0  0  0  0  0  0  0  0  0  0  0  0  0  0  0  0
++         0  0  0  0  0  0  0  0  0  0  0  0  0  0  0  0  0
++         0  0  0  0  0  0  0  0  0  0  0  0  0  0  0  0  0
++         0  0  0  0  0  0  0  0  0  0  0  0  0  0  0  0  0
++         0  0  0  0  0  0  0  0  0  0  0  0  0  0  0  0  0
%c cc cc ccc ccc cccc cccc cccc cccc ccccc ccccc ccccc ccccc
%c cc cc ccc ccc cccc cccc cccc cccc ccccc ccccc ccccc ccccc
%f  0.0000000  0.000000000  0.00000000000  0.000000000000000
%f  0.0000000  0.000000000  0.00000000000  0.000000000000000
%i    0    0    0    0      0      0      0      0         0
%i    0    0    0    0      0      0      0      0         0
/*      NGA, ST. LOUIS,MO.                                  
/*   EPHEMERIS COMPUTED FROM  3 DAYS OF DATA                
/* CCCCCCCCCCCCCCCCCCCCCCCCCCCCCCCCCCCCCCCCCCCCCCCCCCCCCCCCC
/* CCCCCCCCCCCCCCCCCCCCCCCCCCCCCCCCCCCCCCCCCCCCCCCCCCCCCCCCC
*  2006  3  8  6 45   .00000000                                                 
P  1  15806.343945 -20902.358656  -3989.618326     40.370100                    
V  1  -1045.419387   5577.671900 -31822.589485       .019180                    
P  2 -15480.997783  12528.374829  17211.094747    -15.516920                    
V  2 -22518.273651  -1706.254104 -18895.248501       .017511                    
P  3  10851.220086 -24059.502033    146.724427     80.177787                    
V  3   3650.966789   2041.390697  31168.081571       .028933                    
P  4 -23785.836526   7011.749580   9952.846434    170.567968                    
V  4 -12583.513874  -2585.469900 -27793.587486       .111100                    
P  5  13092.222973  22960.219109  -3613.125279   -400.775001                    
V  5  -5234.051046  -1610.536664 -30688.446920       .814226                    
P  6  12349.219468  10383.027561  21281.133481    384.959596                    
V  6 -12721.005309  23474.509289  -4188.650953       .303913                    
P  7   7352.114083  17266.500318  19187.161378    509.420566                    
V  7 -11769.838599  20546.079159 -14417.456430       .068950                    
P  8 -26722.936258    539.409436  -1811.825246    -58.830609                    
V  8  -2039.061626  -2171.290301  31624.942138      -.010817                    
P  9   7355.348983  14684.624858 -21461.742075     10.876439                    
V  9 -25904.292777   1837.059827  -7531.375214       .016109                    
P 10  -2349.204219  19722.475067  17384.269989     79.814431                    
V 10 -12470.514066 -18608.041860  19631.990387       .005745                    
P 11  -9255.826397 -14789.714996 -20135.894757    311.936402                    
V 11  25180.505073  -5066.123190  -7630.883865       .026968                    
P 13 -11897.172629  -8366.838054  22147.379837     46.002125                    
V 13  14366.092659 -24293.746154  -1395.650900       .025531                    
P 14  18258.764369 -10212.912275 -16266.676613    -18.231240                    
V 14  -9061.272748  18722.491122 -21873.920625       .006603                    
P 15  26735.650146    655.340394  -1387.856422    576.941937                    
V 15   1380.458910   2675.847546  31366.632392       .060177                    
P 16   7922.748148 -14863.680161  20598.834487     30.002712                    
V 16  13947.898065  21942.875575  10603.782689       .019667                    
P 17 -18438.141015   8521.743745 -17087.035503     64.150305                    
V 17   8993.791650 -19824.517396 -19698.032985       .067464                    
P 18  18108.440310  14876.730234 -12679.481432   -224.584218                    
V 18   5753.840446  15240.160616  25613.630675      -.020226                    
P 19   4305.405717 -22988.197475 -12450.764966    -19.579603                    
V 19  10656.417742 -12169.130556  25974.566858       .011817                    
P 20 -12050.337853 -23541.981881  -2764.546617    -31.157879                    
V 20   4184.642401   1434.517334 -31424.345492       .008378                    
P 21  24889.016108   6290.748703   7827.260422     11.560813                    
V 21  -9830.115955   2453.213523  28937.967202       .031654                    
P 22  16815.506304   1078.529992 -20375.289198     74.227259                    
V 22  11346.138992  23679.234565  10537.610970       .033096                    
P 23  -3822.657024 -18858.799143  18150.292659    147.910504                    
V 23  12659.212389 -19585.092963 -17744.441830      -.013154                    
P 24 -26359.880318  -2943.435622  -2806.117272     91.089966                    
V 24   3919.443281  -2464.862283 -31325.056304       .029200                    
P 25  21008.846239 -11102.723039  12390.312824    -43.824299                    
V 25  15238.712474    730.146326 -25922.694763       .327434                    
P 26  -6691.348784  23679.184410  -9540.057387    -54.357033                    
V 26  -7769.359352   9042.273337  29595.131564      -.093176                    
P 27 -24750.716913  -4838.419711   9475.570525     38.876444                    
V 27  10890.774153  -3067.073090  28366.713490       .016195                    
P 28 -17959.218404  -4907.409336 -18798.590978     31.924141                    
V 28 -10971.066637 -21756.558036  15587.880394      -.007193                    
P 29  -9629.520568  24110.821172  -4644.575118    554.481881                    
V 29  -4930.195794   4418.636822  31754.834778       .107216                    
P 30  17365.323456  19258.474546   5747.814374     27.626875                    
V 30   1487.146283   8134.815673 -30176.422552       .005616                    
EOF
